NAVSTAR 77 (USA 289)    
1 43873U 18109A   23286.42005803  .00000077  00000+0  00000+0 0  9999
2 43873  55.2060 130.8204 0026428 189.7762 257.7936  2.00570401 35461
